[{"OBJECT_NAME":"STARLINK-31029","OBJECT_ID":"2024-002H","EPOCH":"2026-03-09T17:28:20.279136","MEAN_MOTION":15.30194615,"ECCENTRICITY":0.00010166,"INCLINATION":53.1599,"RA_OF_ASC_NODE":229.5833,"ARG_OF_PERICENTER":81.6731,"MEAN_ANOMALY":278.4385,"EPHEMERIS_TYPE":0,"CLASSIFICATION_TYPE":"U","NORAD_CAT_ID":58712,"ELEMENT_SET_NO":999,"REV_AT_EPOCH":12202,"BSTAR":4.1851412e-5,"MEAN_MOTION_DOT":8.8e-6,"MEAN_MOTION_DDOT":0},{"OBJECT_NAME":"KUIPER-00213","OBJECT_ID":"2026-030P","EPOCH":"2026-03-09T22:00:01.999584","MEAN_MOTION":15.32626943,"ECCENTRICITY":0.00152813,"INCLINATION":51.8816,"RA_OF_ASC_NODE":218.5142,"ARG_OF_PERICENTER":64.2462,"MEAN_ANOMALY":206.8369,"EPHEMERIS_TYPE":0,"CLASSIFICATION_TYPE":"U","NORAD_CAT_ID":67777,"ELEMENT_SET_NO":999,"REV_AT_EPOCH":502,"BSTAR":0.0016072376,"MEAN_MOTION_DOT":0.00051551,"MEAN_MOTION_DDOT":0}]
